NORAD_CAT_ID,OBJECT_NAME,OBJECT_TYPE,EPOCH,MEAN_MOTION,ECCENTRICITY,INCLINATION,RA_OF_ASC_NODE,ARG_OF_PERICENTER,MEAN_ANOMALY,BSTAR,MEAN_MOTION_DOT,MEAN_MOTION_DDOT,TLE_LINE0,TLE_LINE1,TLE_LINE2,SEMIMAJOR_AXIS,PERIOD,APOGEE,PERIGEE,DECAYED
51982.0,STARLINK-3650,PAYLOAD,2022-11-11 17:56:32,15.08833041,0.0001667,53.218,88.713,39.6632,320.4482,0.00027392,4.073e-05,0.0,0 STARLINK-3650,1 51982U 22025AC  22315.74760017  .00004073  00000-0  27392-3 0  9991,2 51982  53.2180  88.7130 0001667  39.6632 320.4482 15.08833041 38896,6917.901999999999,95.438,540.92,538.613,0.0
51982.0,STARLINK-3650,PAYLOAD,2022-11-12 13:01:10,15.08835859,0.0001706,53.2183,85.1449,41.5404,318.5718,0.00015486,2.177e-05,0.0,0 STARLINK-3650,1 51982U 22025AC  22316.54248712  .00002177  00000-0  15486-3 0  9997,2 51982  53.2183  85.1449 0001706  41.5404 318.5718 15.08835859 37917,6917.893,95.438,540.938,538.578,0.0
51982.0,STARLINK-3650,PAYLOAD,2022-11-12 17:47:20,15.08838539,0.0001791,53.2184,84.2524,41.8682,318.2447,0.00016941,2.409e-05,0.0,0 STARLINK-3650,1 51982U 22025AC  22316.74120616  .00002409  00000-0  16941-3 0  9996,2 51982  53.2184  84.2524 0001791  41.8682 318.2447 15.08838539 37944,6917.885,95.438,540.989,538.511,0.0
51982.0,STARLINK-3650,PAYLOAD,2022-11-13 01:44:16,15.08834602,0.0001917,53.2186,82.7662,44.8828,315.2319,8.5403e-05,1.071e-05,0.0,0 STARLINK-3650,1 51982U 22025AC  22317.07241170  .00001071  00000-0  85403-4 0  9996,2 51982  53.2186  82.7662 0001917  44.8828 315.2319 15.08834602 39097,6917.897,95.438,541.0880000000002,538.436,0.0
51982.0,STARLINK-3650,PAYLOAD,2022-11-13 08:05:48,15.08839049,0.0001646,53.2187,81.5751,41.8364,318.2754,7.8892e-05,9.68e-06,0.0,0 STARLINK-3650,1 51982U 22025AC  22317.33736842  .00000968  00000-0  78892-4 0  9998,2 51982  53.2187  81.5751 0001646  41.8364 318.2754 15.08839049 38034,6917.8830000000025,95.438,540.887,538.61,0.0
51982.0,STARLINK-3650,PAYLOAD,2022-11-13 17:38:07,15.08838829,0.0001735,53.219,79.7909,45.6296,314.4838,1.111e-05,-1.11e-06,0.0,0 STARLINK-3650,1 51982U 22025AC  22317.73481015 -.00000111  00000-0  11110-4 0  9992,2 51982  53.2190  79.7909 0001735  45.6296 314.4838 15.08838829 38099,6917.884,95.438,540.9490000000002,538.549,0.0
51982.0,STARLINK-3650,PAYLOAD,2022-11-14 07:56:36,15.08839881,0.0001688,53.2182,77.117,44.5684,315.5444,-6.7086e-05,-1.356e-05,0.0,0 STARLINK-3650,1 51982U 22025AC  22318.33097299 -.00001356  00000-0 -67086-4 0  9992,2 51982  53.2182  77.1170 0001688  44.5684 315.5444 15.08839881 39284,6917.880999999999,95.438,540.913,538.578,0.0
51982.0,STARLINK-3650,PAYLOAD,2022-11-14 11:07:22,15.0883777,0.0001785,53.2183,76.5214,41.5351,318.5777,-7.5176e-05,-1.484e-05,0.0,0 STARLINK-3650,1 51982U 22025AC  22318.46345457 -.00001484  00000-0 -75176-4 0  9999,2 51982  53.2183  76.5214 0001785  41.5351 318.5777 15.08837770 38201,6917.887,95.438,540.987,538.5169999999998,0.0
51982.0,STARLINK-3650,PAYLOAD,2022-11-14 17:28:54,15.08840693,0.0001901,53.2185,75.3319,40.4023,319.711,-3.7981e-05,-8.93e-06,0.0,0 STARLINK-3650,1 51982U 22025AC  22318.72841189 -.00000893  00000-0 -37981-4 0  9996,2 51982  53.2185  75.3319 0001901  40.4023 319.7110 15.08840693 38246,6917.878000000002,95.438,541.058,538.428,0.0
51982.0,STARLINK-3650,PAYLOAD,2022-11-15 14:08:55,15.08841323,0.0001996,53.2187,71.4667,44.6897,315.4256,2.6565e-05,1.35e-06,0.0,0 STARLINK-3650,1 51982U 22025AC  22319.58953074  .00000135  00000-0  26565-4 0  9991,2 51982  53.2187  71.4667 0001996  44.6897 315.4256 15.08841323 38379,6917.876,95.437,541.122,538.361,0.0
51982.0,STARLINK-3650,PAYLOAD,2022-11-15 18:55:05,15.08836134,0.0002074,53.2182,70.5743,41.4104,318.7045,0.00010983,1.46e-05,0.0,0 STARLINK-3650,1 51982U 22025AC  22319.78825246  .00001460  00000-0  10983-3 0  9990,2 51982  53.2182  70.5743 0002074  41.4104 318.7045 15.08836134 38403,6917.892,95.438,541.192,538.322,0.0
51982.0,STARLINK-3650,PAYLOAD,2022-11-16 13:59:42,15.08838718,0.0001979,53.2183,67.0063,42.4208,317.6937,0.0001058,1.396e-05,0.0,0 STARLINK-3650,1 51982U 22025AC  22320.58313187  .00001396  00000-0  10580-3 0  9997,2 51982  53.2183  67.0063 0001979  42.4208 317.6937 15.08838718 38520,6917.884,95.438,541.118,538.38,0.0
51982.0,STARLINK-3650,PAYLOAD,2022-11-16 18:45:53,15.08815089,0.000204,53.2183,66.1143,35.7801,324.3327,-0.0001024,-1.916e-05,0.0,0 STARLINK-3650,1 51982U 22025AC  22320.78187447 -.00001916  00000-0 -10240-3 0  9990,2 51982  53.2183  66.1143 0002040  35.7801 324.3327 15.08815089 38550,6917.956999999999,95.439,541.2330000000002,538.41,0.0
51982.0,STARLINK-3650,PAYLOAD,2022-11-17 10:39:44,15.08827795,0.0003017,53.2217,63.1461,22.6101,337.5023,4.0029e-05,3.48e-06,0.0,0 STARLINK-3650,1 51982U 22025AC  22321.44426942  .00000348  00000-0  40029-4 0  9995,2 51982  53.2217  63.1461 0003017  22.6101 337.5023 15.08827795 39750,6917.918000000002,95.438,541.87,537.696,0.0
51982.0,STARLINK-3650,PAYLOAD,2022-11-17 18:36:38,15.08846825,0.000241,53.2186,61.654,31.3979,328.7156,0.00011951,1.615e-05,0.0,0 STARLINK-3650,1 51982U 22025AC  22321.77545114  .00001615  00000-0  11951-3 0  9993,2 51982  53.2186  61.6540 0002410  31.3979 328.7156 15.08846825 38700,6917.86,95.437,541.3919999999998,538.057,0.0
51982.0,STARLINK-3650,PAYLOAD,2022-11-18 13:41:16,15.08849509,0.0002352,53.2193,58.0845,29.8808,330.2319,0.00011457,1.536e-05,0.0,0 STARLINK-3650,1 51982U 22025AC  22322.57032686  .00001536  00000-0  11457-3 0  9990,2 51982  53.2193  58.0845 0002352  29.8808 330.2319 15.08849509 38828,6917.851,95.437,541.3430000000002,538.089,0.0
51982.0,STARLINK-3650,PAYLOAD,2022-11-18 16:52:02,15.08845935,0.0002242,53.2193,57.4902,27.817,332.2942,8.230200000000001e-05,1.022e-05,0.0,0 STARLINK-3650,1 51982U 22025AC  22322.70280976  .00001022  00000-0  82302-4 0  9990,2 51982  53.2193  57.4902 0002242  27.8170 332.2942 15.08845935 38848,6917.861999999999,95.437,541.278,538.1759999999998,0.0
51982.0,STARLINK-3650,PAYLOAD,2022-11-18 23:13:35,15.08833115,0.0002442,53.221,56.3023,22.93,337.1801,0.00013561,1.87e-05,0.0,0 STARLINK-3650,1 51982U 22025AC  22322.96777523  .00001870  00000-0  13561-3 0  9998,2 51982  53.2210  56.3023 0002442  22.9300 337.1801 15.08833115 39984,6917.901,95.438,541.456,538.077,0.0
51982.0,STARLINK-3650,PAYLOAD,2022-11-19 08:45:54,15.08868911,0.0003173,53.221,54.52,20.672,339.44,-0.00037043,-6.185e-05,0.0,0 STARLINK-3650,1 51982U 22025AC  22323.36521657 -.00006185  00000-0 -37043-3 0  9995,2 51982  53.2210  54.5200 0003173  20.6720 339.4400 15.08868911 40045,6917.792,95.436,541.852,537.462,0.0
51982.0,STARLINK-3650,PAYLOAD,2022-11-19 15:07:26,15.08877814,0.000192,53.221,53.3309,47.4327,312.6827,-0.00048881,-8.067e-05,0.0,0 STARLINK-3650,1 51982U 22025AC  22323.63016842 -.00008067  00000-0 -48881-3 0  9993,2 51982  53.2210  53.3309 0001920  47.4327 312.6827 15.08877814 40082,6917.765,95.435,540.9580000000002,538.302,0.0
51982.0,STARLINK-3650,PAYLOAD,2022-11-19 23:04:23,15.08839154,0.0002536,53.2196,51.8438,29.8069,330.3067,-0.00014849,-2.651e-05,0.0,0 STARLINK-3650,1 51982U 22025AC  22323.96138118 -.00002651  00000-0 -14849-3 0  9990,2 51982  53.2196  51.8438 0002536  29.8069 330.3067 15.08839154 40136,6917.8830000000025,95.438,541.502,537.994,0.0
51982.0,STARLINK-3650,PAYLOAD,2022-11-20 10:12:04,15.08844629,0.0002365,53.2201,49.7609,23.1482,336.9617,-3.5663e-05,-8.56e-06,0.0,0 STARLINK-3650,1 51982U 22025AC  22324.42505368 -.00000856  00000-0 -35663-4 0  9990,2 51982  53.2201  49.7609 0002365  23.1482 336.9617 15.08844629 40209,6917.866,95.437,541.367,538.095,0.0
51982.0,STARLINK-3650,PAYLOAD,2022-11-20 13:22:50,15.08846578,0.0002469,53.2192,49.1657,24.1781,335.9327,-2.0204e-05,-6.1e-06,0.0,0 STARLINK-3650,1 51982U 22025AC  22324.55753195 -.00000610  00000-0 -20204-4 0  9990,2 51982  53.2192  49.1657 0002469  24.1781 335.9327 15.08846578 39124,6917.86,95.437,541.433,538.0169999999998,0.0
51982.0,STARLINK-3650,PAYLOAD,2022-11-20 14:58:13,15.08848326,0.0002465,53.2193,48.8683,24.8176,335.2935,-2.8583e-06,-3.34e-06,0.0,0 STARLINK-3650,1 51982U 22025AC  22324.62377019 -.00000334  00000-0 -28583-5 0  9997,2 51982  53.2193  48.8683 0002465  24.8176 335.2935 15.08848326 39133,6917.855,95.437,541.425,538.015,0.0
51982.0,STARLINK-3650,PAYLOAD,2022-11-20 22:55:10,15.08829913,0.0002615,53.2196,47.3824,26.5373,333.5753,-1.6141e-05,-5.45e-06,0.0,0 STARLINK-3650,1 51982U 22025AC  22324.95498298 -.00000545  00000-0 -16141-4 0  9996,2 51982  53.2196  47.3824 0002615  26.5373 333.5753 15.08829913 40280,6917.911,95.438,541.585,537.967,0.0
51982.0,STARLINK-3650,PAYLOAD,2022-11-21 11:38:14,15.088409,0.0002607,53.2192,45.0027,26.6897,333.4229,7.6404e-05,9.28e-06,0.0,0 STARLINK-3650,1 51982U 22025AC  22325.48489568  .00000928  00000-0  76404-4 0  9996,2 51982  53.2192  45.0027 0002607  26.6897 333.4229 15.08840900 39261,6917.878000000002,95.437,541.5459999999998,537.939,0.0
51982.0,STARLINK-3650,PAYLOAD,2022-11-21 14:49:00,15.08844867,0.000261,53.2193,44.4079,26.857,333.2557,0.00011293,1.51e-05,0.0,0 STARLINK-3650,1 51982U 22025AC  22325.61737249  .00001510  00000-0  11293-3 0  9995,2 51982  53.2193  44.4079 0002610  26.8570 333.2557 15.08844867 40389,6917.866,95.437,541.536,537.925,0.0
51982.0,STARLINK-3650,PAYLOAD,2022-11-21 17:59:47,15.0884691,0.0002593,53.2192,43.8129,26.6822,333.4303,0.00012981,1.779e-05,0.0,0 STARLINK-3650,1 51982U 22025AC  22325.74985060  .00001779  00000-0  12981-3 0  9997,2 51982  53.2192  43.8129 0002593  26.6822 333.4303 15.08846910 39307,6917.859,95.437,541.518,537.93,0.0
51982.0,STARLINK-3650,PAYLOAD,2022-11-22 11:29:01,15.08844016,0.000261,53.2194,40.5416,24.5406,335.571,0.00011994,1.621e-05,0.0,0 STARLINK-3650,1 51982U 22025AC  22326.47849143  .00001621  00000-0  11994-3 0  9998,2 51982  53.2194  40.5416 0002610  24.5406 335.5710 15.08844016 39419,6917.868,95.437,541.539,537.928,0.0
